{
  "norad_id": 59494,
  "name": "STARLINK-31744",
  "history": [
    {
      "epoch": "2026-04-18T17:59:21.507936Z",
      "apogee_km": 483.8407238540676,
      "perigee_km": 482.2585342174116,
      "latitude_deg": 2.9632654832119234e-05,
      "longitude_deg": 4.469433568052892,
      "height_km": 482.8470977338636,
      "semi_major_axis_km": 6861.186629035739,
      "eccentricity": 0.0001153,
      "inclination_deg": 43.003,
      "raan_deg": 121.1731,
      "arg_perigee_deg": 268.5044,
      "mean_anomaly_deg": 91.5676,
      "mean_motion_rev_day": 15.27579822
    },
    {
      "epoch": "2026-04-19T17:31:42.125088Z",
      "apogee_km": 483.8783229506671,
      "perigee_km": 482.21928822287646,
      "latitude_deg": -1.670489688551523e-05,
      "longitude_deg": 4.877963579934059,
      "height_km": 482.7879191210686,
      "semi_major_axis_km": 6861.1858055867715,
      "eccentricity": 0.0001209,
      "inclination_deg": 43.0033,
      "raan_deg": 115.6343,
      "arg_perigee_deg": 272.6119,
      "mean_anomaly_deg": 87.4594,
      "mean_motion_rev_day": 15.27580097
    },
    {
      "epoch": "2026-04-20T01:22:29.822304Z",
      "apogee_km": 483.7668199206619,
      "perigee_km": 482.37728786306707,
      "latitude_deg": 2.3394795066590032e-05,
      "longitude_deg": -114.98938022098628,
      "height_km": 482.82423483467977,
      "semi_major_axis_km": 6861.209053891864,
      "eccentricity": 0.00010126,
      "inclination_deg": 43.0022,
      "raan_deg": 113.7879,
      "arg_perigee_deg": 272.0156,
      "mean_anomaly_deg": 88.058,
      "mean_motion_rev_day": 15.27572333
    },
    {
      "epoch": "2026-04-21T16:36:24.147360Z",
      "apogee_km": 483.840224173965,
      "perigee_km": 482.3184063952358,
      "latitude_deg": 5.945772922090831e-06,
      "longitude_deg": 5.6924518681961125,
      "height_km": 482.7444204467633,
      "semi_major_axis_km": 6861.216315284601,
      "eccentricity": 0.0001109,
      "inclination_deg": 43.0031,
      "raan_deg": 104.5573,
      "arg_perigee_deg": 278.4415,
      "mean_anomaly_deg": 81.6311,
      "mean_motion_rev_day": 15.27569908
    },
    {
      "epoch": "2026-04-22T16:08:45.367584Z",
      "apogee_km": 483.6708364300848,
      "perigee_km": 482.41524048304836,
      "latitude_deg": -5.483762529686265e-06,
      "longitude_deg": 6.098397902743297,
      "height_km": 482.6627130802232,
      "semi_major_axis_km": 6861.180038456567,
      "eccentricity": 9.15e-05,
      "inclination_deg": 43.0025,
      "raan_deg": 99.0184,
      "arg_perigee_deg": 284.4714,
      "mean_anomaly_deg": 75.6036,
      "mean_motion_rev_day": 15.27582023
    },
    {
      "epoch": "2026-04-23T07:50:19.239648Z",
      "apogee_km": 483.74838822977017,
      "perigee_km": 482.3808135266827,
      "latitude_deg": 8.172377693580473e-06,
      "longitude_deg": 126.3699994662622,
      "height_km": 482.6995665515633,
      "semi_major_axis_km": 6861.201600878226,
      "eccentricity": 9.966e-05,
      "inclination_deg": 43.0025,
      "raan_deg": 95.3256,
      "arg_perigee_deg": 281.9574,
      "mean_anomaly_deg": 78.1166,
      "mean_motion_rev_day": 15.27574822
    },
    {
      "epoch": "2026-04-24T07:22:39.353088Z",
      "apogee_km": 483.72761986129444,
      "perigee_km": 482.3567562595208,
      "latitude_deg": 2.754649639668661e-05,
      "longitude_deg": 126.78040354179451,
      "height_km": 482.7097982541167,
      "semi_major_axis_km": 6861.179188060408,
      "eccentricity": 9.99e-05,
      "inclination_deg": 43.0027,
      "raan_deg": 89.7865,
      "arg_perigee_deg": 279.1545,
      "mean_anomaly_deg": 80.9194,
      "mean_motion_rev_day": 15.27582307
    },
    {
      "epoch": "2026-04-25T14:45:47.500704Z",
      "apogee_km": 483.77118021579645,
      "perigee_km": 482.3522843179644,
      "latitude_deg": -1.2558553367337218e-05,
      "longitude_deg": 7.320651066080585,
      "height_km": 482.7434821034877,
      "semi_major_axis_km": 6861.19873226688,
      "eccentricity": 0.0001034,
      "inclination_deg": 43.002,
      "raan_deg": 82.3997,
      "arg_perigee_deg": 277.6848,
      "mean_anomaly_deg": 82.3886,
      "mean_motion_rev_day": 15.2757578
    },
    {
      "epoch": "2026-04-26T22:08:55.156704Z",
      "apogee_km": 483.6861368603586,
      "perigee_km": 482.4402801265005,
      "latitude_deg": -4.6247328702447666e-05,
      "longitude_deg": -112.13513940890263,
      "height_km": 482.7150291099521,
      "semi_major_axis_km": 6861.200208493429,
      "eccentricity": 9.079e-05,
      "inclination_deg": 43.0023,
      "raan_deg": 75.0148,
      "arg_perigee_deg": 281.5496,
      "mean_anomaly_deg": 78.5253,
      "mean_motion_rev_day": 15.27575287
    },
    {
      "epoch": "2026-04-27T13:50:29.287104Z",
      "apogee_km": 483.56379488086714,
      "perigee_km": 482.58401396371573,
      "latitude_deg": 4.464484873966527e-06,
      "longitude_deg": 8.135324214592469,
      "height_km": 482.82176809505495,
      "semi_major_axis_km": 6861.210904422292,
      "eccentricity": 7.14e-05,
      "inclination_deg": 43.0018,
      "raan_deg": 71.3219,
      "arg_perigee_deg": 273.3283,
      "mean_anomaly_deg": 86.7487,
      "mean_motion_rev_day": 15.27571715
    },
    {
      "epoch": "2026-04-28T21:13:37.519392Z",
      "apogee_km": 483.4685884424862,
      "perigee_km": 482.69189865051794,
      "latitude_deg": 1.0378209912378223e-05,
      "longitude_deg": -111.32173132065442,
      "height_km": 482.87265753993927,
      "semi_major_axis_km": 6861.217243546502,
      "eccentricity": 5.66e-05,
      "inclination_deg": 43.0036,
      "raan_deg": 63.9381,
      "arg_perigee_deg": 267.631,
      "mean_anomaly_deg": 92.4477,
      "mean_motion_rev_day": 15.27569598
    },
    {
      "epoch": "2026-04-29T20:45:59.476608Z",
      "apogee_km": 483.87126831683236,
      "perigee_km": 482.3466994592127,
      "latitude_deg": -6.27543929693021e-05,
      "longitude_deg": -110.91982754623403,
      "height_km": 482.7645752189244,
      "semi_major_axis_km": 6861.245983888022,
      "eccentricity": 0.0001111,
      "inclination_deg": 43.0027,
      "raan_deg": 58.3983,
      "arg_perigee_deg": 279.1471,
      "mean_anomaly_deg": 80.9254,
      "mean_motion_rev_day": 15.2756
    },
    {
      "epoch": "2026-04-30T12:27:32.193504Z",
      "apogee_km": 483.85124618940426,
      "perigee_km": 482.26233093184965,
      "latitude_deg": -4.1450468595278746e-07,
      "longitude_deg": 9.356553475473854,
      "height_km": 482.81366419164834,
      "semi_major_axis_km": 6861.193788560627,
      "eccentricity": 0.00011579,
      "inclination_deg": 43.0037,
      "raan_deg": 54.7054,
      "arg_perigee_deg": 271.4452,
      "mean_anomaly_deg": 88.6267,
      "mean_motion_rev_day": 15.27577431
    }
  ]
}